[{"OBJECT_NAME":"STARLINK-35517","OBJECT_ID":"2025-245L","EPOCH":"2026-03-09T21:35:07.028160","MEAN_MOTION":15.30203063,"ECCENTRICITY":0.00011293,"INCLINATION":53.1572,"RA_OF_ASC_NODE":282.5658,"ARG_OF_PERICENTER":125.5948,"MEAN_ANOMALY":234.5158,"EPHEMERIS_TYPE":0,"CLASSIFICATION_TYPE":"U","NORAD_CAT_ID":66244,"ELEMENT_SET_NO":999,"REV_AT_EPOCH":2108,"BSTAR":0.00071963644,"MEAN_MOTION_DOT":0.00021017,"MEAN_MOTION_DDOT":0},{"OBJECT_NAME":"CERISE","OBJECT_ID":"1995-033B","EPOCH":"2026-03-09T23:11:27.589056","MEAN_MOTION":15.32047731,"ECCENTRICITY":0.00057118,"INCLINATION":98.325,"RA_OF_ASC_NODE":273.5192,"ARG_OF_PERICENTER":211.8754,"MEAN_ANOMALY":148.214,"EPHEMERIS_TYPE":0,"CLASSIFICATION_TYPE":"U","NORAD_CAT_ID":23606,"ELEMENT_SET_NO":999,"REV_AT_EPOCH":66468,"BSTAR":0.00062940675,"MEAN_MOTION_DOT":0.00019422,"MEAN_MOTION_DDOT":0}]
